CCSDS_OMM_VERS = 2.0
CREATION_DATE  = 
ORIGINATOR     = 

OBJECT_NAME    = UNKNOWN
OBJECT_ID      = 
CENTER_NAME    = EARTH
REF_FRAME      = TEME
TIME_SYSTEM    = UTC
MEAN_ELEMENT_THEORY = SGP/SGP4

EPOCH          = 2026-03-05T09:29:07.517760
MEAN_MOTION    = 13.25951502
ECCENTRICITY   = .0426273
INCLINATION    = 99.8287
RA_OF_ASC_NODE = 219.6581
ARG_OF_PERICENTER = 172.8671
MEAN_ANOMALY   = 187.8782

EPHEMERIS_TYPE = 0
CLASSIFICATION_TYPE = U
NORAD_CAT_ID   = 82961
ELEMENT_SET_NO = 999
REV_AT_EPOCH   = 56665
BSTAR          = .26219E-1
MEAN_MOTION_DOT = .18813E-3
MEAN_MOTION_DDOT = 0

CCSDS_OMM_VERS = 2.0
CREATION_DATE  = 
ORIGINATOR     = 

OBJECT_NAME    = UNKNOWN
OBJECT_ID      = 
CENTER_NAME    = EARTH
REF_FRAME      = TEME
TIME_SYSTEM    = UTC
MEAN_ELEMENT_THEORY = SGP/SGP4

EPOCH          = 2026-03-06T04:13:39.258912
MEAN_MOTION    = 13.60213370
ECCENTRICITY   = .0003309
INCLINATION    = 100.1080
RA_OF_ASC_NODE = 152.4005
ARG_OF_PERICENTER = 183.7589
MEAN_ANOMALY   = 176.3525

EPHEMERIS_TYPE = 0
CLASSIFICATION_TYPE = U
NORAD_CAT_ID   = 82965
ELEMENT_SET_NO = 999
REV_AT_EPOCH   = 53579
BSTAR          = .15997E-2
MEAN_MOTION_DOT = .115E-4
MEAN_MOTION_DDOT = 0

CCSDS_OMM_VERS = 2.0
CREATION_DATE  = 
ORIGINATOR     = 

OBJECT_NAME    = UNKNOWN
OBJECT_ID      = 
CENTER_NAME    = EARTH
REF_FRAME      = TEME
TIME_SYSTEM    = UTC
MEAN_ELEMENT_THEORY = SGP/SGP4

EPOCH          = 2026-03-06T14:29:31.416576
MEAN_MOTION    = 0.99113855
ECCENTRICITY   = .0122156
INCLINATION    = 5.9782
RA_OF_ASC_NODE = 289.8838
ARG_OF_PERICENTER = 253.7662
MEAN_ANOMALY   = 311.5584

EPHEMERIS_TYPE = 0
CLASSIFICATION_TYPE = U
NORAD_CAT_ID   = 83903
ELEMENT_SET_NO = 999
REV_AT_EPOCH   = 4449
BSTAR          = 0
MEAN_MOTION_DOT = -.324E-5
MEAN_MOTION_DDOT = 0

CCSDS_OMM_VERS = 2.0
CREATION_DATE  = 
ORIGINATOR     = 

OBJECT_NAME    = UNKNOWN
OBJECT_ID      = 
CENTER_NAME    = EARTH
REF_FRAME      = TEME
TIME_SYSTEM    = UTC
MEAN_ELEMENT_THEORY = SGP/SGP4

EPOCH          = 2026-03-05T19:20:25.931616
MEAN_MOTION    = 1.02663549
ECCENTRICITY   = .0224308
INCLINATION    = 5.5967
RA_OF_ASC_NODE = 296.9700
ARG_OF_PERICENTER = 275.8012
MEAN_ANOMALY   = 287.0268

EPHEMERIS_TYPE = 0
CLASSIFICATION_TYPE = U
NORAD_CAT_ID   = 83934
ELEMENT_SET_NO = 999
REV_AT_EPOCH   = 4613
BSTAR          = 0
MEAN_MOTION_DOT = -.195E-5
MEAN_MOTION_DDOT = 0

CCSDS_OMM_VERS = 2.0
CREATION_DATE  = 
ORIGINATOR     = 

OBJECT_NAME    = UNKNOWN
OBJECT_ID      = 
CENTER_NAME    = EARTH
REF_FRAME      = TEME
TIME_SYSTEM    = UTC
MEAN_ELEMENT_THEORY = SGP/SGP4

EPOCH          = 2026-03-05T09:56:02.065056
MEAN_MOTION    = 2.16232214
ECCENTRICITY   = .6164632
INCLINATION    = 22.3795
RA_OF_ASC_NODE = 160.6155
ARG_OF_PERICENTER = 89.6943
MEAN_ANOMALY   = 335.9169

EPHEMERIS_TYPE = 0
CLASSIFICATION_TYPE = U
NORAD_CAT_ID   = 84006
ELEMENT_SET_NO = 999
REV_AT_EPOCH   = 8601
BSTAR          = 0
MEAN_MOTION_DOT = .4E-7
MEAN_MOTION_DDOT = 0

CCSDS_OMM_VERS = 2.0
CREATION_DATE  = 
ORIGINATOR     = 

OBJECT_NAME    = UNKNOWN
OBJECT_ID      = 
CENTER_NAME    = EARTH
REF_FRAME      = TEME
TIME_SYSTEM    = UTC
MEAN_ELEMENT_THEORY = SGP/SGP4

EPOCH          = 2026-03-03T08:35:36.434976
MEAN_MOTION    = 8.03354809
ECCENTRICITY   = .3516471
INCLINATION    = 64.8752
RA_OF_ASC_NODE = 184.3796
ARG_OF_PERICENTER = 9.3248
MEAN_ANOMALY   = 355.8429

EPHEMERIS_TYPE = 0
CLASSIFICATION_TYPE = U
NORAD_CAT_ID   = 84188
ELEMENT_SET_NO = 999
REV_AT_EPOCH   = 4759
BSTAR          = .92896E-1
MEAN_MOTION_DOT = .182396E-2
MEAN_MOTION_DDOT = 0

CCSDS_OMM_VERS = 2.0
CREATION_DATE  = 
ORIGINATOR     = 

OBJECT_NAME    = UNKNOWN
OBJECT_ID      = 
CENTER_NAME    = EARTH
REF_FRAME      = TEME
TIME_SYSTEM    = UTC
MEAN_ELEMENT_THEORY = SGP/SGP4

EPOCH          = 2026-03-06T04:30:41.408064
MEAN_MOTION    = 3.21470192
ECCENTRICITY   = .6535279
INCLINATION    = 20.3232
RA_OF_ASC_NODE = 225.8325
ARG_OF_PERICENTER = 151.6855
MEAN_ANOMALY   = 269.3923

EPHEMERIS_TYPE = 0
CLASSIFICATION_TYPE = U
NORAD_CAT_ID   = 84232
ELEMENT_SET_NO = 999
REV_AT_EPOCH   = 10735
BSTAR          = .37422E-1
MEAN_MOTION_DOT = .52288E-3
MEAN_MOTION_DDOT = 0

CCSDS_OMM_VERS = 2.0
CREATION_DATE  = 
ORIGINATOR     = 

OBJECT_NAME    = UNKNOWN
OBJECT_ID      = 
CENTER_NAME    = EARTH
REF_FRAME      = TEME
TIME_SYSTEM    = UTC
MEAN_ELEMENT_THEORY = SGP/SGP4

EPOCH          = 2026-03-02T02:12:07.356384
MEAN_MOTION    = 2.62653933
ECCENTRICITY   = .6890498
INCLINATION    = 9.3107
RA_OF_ASC_NODE = 299.7920
ARG_OF_PERICENTER = 164.3464
MEAN_ANOMALY   = 238.4347

EPHEMERIS_TYPE = 0
CLASSIFICATION_TYPE = U
NORAD_CAT_ID   = 84236
ELEMENT_SET_NO = 999
REV_AT_EPOCH   = 11606
BSTAR          = .59819E-2
MEAN_MOTION_DOT = .94E-5
MEAN_MOTION_DDOT = 0

CCSDS_OMM_VERS = 2.0
CREATION_DATE  = 
ORIGINATOR     = 

OBJECT_NAME    = UNKNOWN
OBJECT_ID      = 
CENTER_NAME    = EARTH
REF_FRAME      = TEME
TIME_SYSTEM    = UTC
MEAN_ELEMENT_THEORY = SGP/SGP4

EPOCH          = 2026-03-06T02:15:41.821920
MEAN_MOTION    = 6.22242597
ECCENTRICITY   = .4553793
INCLINATION    = 23.8359
RA_OF_ASC_NODE = 44.8387
ARG_OF_PERICENTER = 80.8797
MEAN_ANOMALY   = 326.3753

EPHEMERIS_TYPE = 0
CLASSIFICATION_TYPE = U
NORAD_CAT_ID   = 84292
ELEMENT_SET_NO = 999
REV_AT_EPOCH   = 23325
BSTAR          = .25861E-2
MEAN_MOTION_DOT = .4212E-4
MEAN_MOTION_DDOT = 0

CCSDS_OMM_VERS = 2.0
CREATION_DATE  = 
ORIGINATOR     = 

OBJECT_NAME    = UNKNOWN
OBJECT_ID      = 
CENTER_NAME    = EARTH
REF_FRAME      = TEME
TIME_SYSTEM    = UTC
MEAN_ELEMENT_THEORY = SGP/SGP4

EPOCH          = 2026-02-27T05:14:06.033696
MEAN_MOTION    = 2.05796928
ECCENTRICITY   = .7208492
INCLINATION    = 19.4512
RA_OF_ASC_NODE = 300.0109
ARG_OF_PERICENTER = 102.8288
MEAN_ANOMALY   = 339.5385

EPHEMERIS_TYPE = 0
CLASSIFICATION_TYPE = U
NORAD_CAT_ID   = 84407
ELEMENT_SET_NO = 999
REV_AT_EPOCH   = 7744
BSTAR          = .15745E-1
MEAN_MOTION_DOT = -.62E-6
MEAN_MOTION_DDOT = 0

CCSDS_OMM_VERS = 2.0
CREATION_DATE  = 
ORIGINATOR     = 

OBJECT_NAME    = UNKNOWN
OBJECT_ID      = 
CENTER_NAME    = EARTH
REF_FRAME      = TEME
TIME_SYSTEM    = UTC
MEAN_ELEMENT_THEORY = SGP/SGP4

EPOCH          = 2026-03-03T08:05:14.544096
MEAN_MOTION    = 2.19867114
ECCENTRICITY   = .7115404
INCLINATION    = 18.0132
RA_OF_ASC_NODE = 131.5702
ARG_OF_PERICENTER = 71.7416
MEAN_ANOMALY   = 349.0642

EPHEMERIS_TYPE = 0
CLASSIFICATION_TYPE = U
NORAD_CAT_ID   = 84575
ELEMENT_SET_NO = 999
REV_AT_EPOCH   = 6723
BSTAR          = .51095E-2
MEAN_MOTION_DOT = -.72E-6
MEAN_MOTION_DDOT = 0

CCSDS_OMM_VERS = 2.0
CREATION_DATE  = 
ORIGINATOR     = 

OBJECT_NAME    = UNKNOWN
OBJECT_ID      = 
CENTER_NAME    = EARTH
REF_FRAME      = TEME
TIME_SYSTEM    = UTC
MEAN_ELEMENT_THEORY = SGP/SGP4

EPOCH          = 2026-03-06T12:53:02.493888
MEAN_MOTION    = 3.00136613
ECCENTRICITY   = .6576543
INCLINATION    = 2.0489
RA_OF_ASC_NODE = 193.4928
ARG_OF_PERICENTER = 151.3251
MEAN_ANOMALY   = 117.3318

EPHEMERIS_TYPE = 0
CLASSIFICATION_TYPE = U
NORAD_CAT_ID   = 84932
ELEMENT_SET_NO = 999
REV_AT_EPOCH   = 13429
BSTAR          = .86848E-2
MEAN_MOTION_DOT = .1093E-4
MEAN_MOTION_DDOT = 0

CCSDS_OMM_VERS = 2.0
CREATION_DATE  = 
ORIGINATOR     = 

OBJECT_NAME    = UNKNOWN
OBJECT_ID      = 
CENTER_NAME    = EARTH
REF_FRAME      = TEME
TIME_SYSTEM    = UTC
MEAN_ELEMENT_THEORY = SGP/SGP4

EPOCH          = 2026-03-05T09:45:01.372896
MEAN_MOTION    = 14.41342709
ECCENTRICITY   = .0045519
INCLINATION    = 98.4334
RA_OF_ASC_NODE = 39.2805
ARG_OF_PERICENTER = 274.3346
MEAN_ANOMALY   = 238.2787

EPHEMERIS_TYPE = 0
CLASSIFICATION_TYPE = U
NORAD_CAT_ID   = 85004
ELEMENT_SET_NO = 999
REV_AT_EPOCH   = 64280
BSTAR          = .52142E-3
MEAN_MOTION_DOT = .1664E-4
MEAN_MOTION_DDOT = 0

CCSDS_OMM_VERS = 2.0
CREATION_DATE  = 
ORIGINATOR     = 

OBJECT_NAME    = UNKNOWN
OBJECT_ID      = 
CENTER_NAME    = EARTH
REF_FRAME      = TEME
TIME_SYSTEM    = UTC
MEAN_ELEMENT_THEORY = SGP/SGP4

EPOCH          = 2026-02-27T02:23:30.679296
MEAN_MOTION    = 13.75239596
ECCENTRICITY   = .0026672
INCLINATION    = 99.2482
RA_OF_ASC_NODE = 282.6795
ARG_OF_PERICENTER = 51.5718
MEAN_ANOMALY   = 101.6401

EPHEMERIS_TYPE = 0
CLASSIFICATION_TYPE = U
NORAD_CAT_ID   = 85010
ELEMENT_SET_NO = 999
REV_AT_EPOCH   = 61441
BSTAR          = .10809E-2
MEAN_MOTION_DOT = .996E-5
MEAN_MOTION_DDOT = 0

CCSDS_OMM_VERS = 2.0
CREATION_DATE  = 
ORIGINATOR     = 

OBJECT_NAME    = UNKNOWN
OBJECT_ID      = 
CENTER_NAME    = EARTH
REF_FRAME      = TEME
TIME_SYSTEM    = UTC
MEAN_ELEMENT_THEORY = SGP/SGP4

EPOCH          = 2026-03-06T03:58:25.433760
MEAN_MOTION    = 14.62409823
ECCENTRICITY   = .00141
INCLINATION    = 74.0477
RA_OF_ASC_NODE = 238.5458
ARG_OF_PERICENTER = 126.0519
MEAN_ANOMALY   = 234.1957

EPHEMERIS_TYPE = 0
CLASSIFICATION_TYPE = U
NORAD_CAT_ID   = 85015
ELEMENT_SET_NO = 999
REV_AT_EPOCH   = 65480
BSTAR          = .14888E-3
MEAN_MOTION_DOT = .724E-5
MEAN_MOTION_DDOT = 0

CCSDS_OMM_VERS = 2.0
CREATION_DATE  = 
ORIGINATOR     = 

OBJECT_NAME    = UNKNOWN
OBJECT_ID      = 
CENTER_NAME    = EARTH
REF_FRAME      = TEME
TIME_SYSTEM    = UTC
MEAN_ELEMENT_THEORY = SGP/SGP4

EPOCH          = 2026-03-06T07:59:06.130176
MEAN_MOTION    = 14.79943712
ECCENTRICITY   = .0002639
INCLINATION    = 99.8378
RA_OF_ASC_NODE = 104.1094
ARG_OF_PERICENTER = 112.7441
MEAN_ANOMALY   = 309.4518

EPHEMERIS_TYPE = 0
CLASSIFICATION_TYPE = U
NORAD_CAT_ID   = 85023
ELEMENT_SET_NO = 999
REV_AT_EPOCH   = 64117
BSTAR          = .39666E-2
MEAN_MOTION_DOT = .30028E-3
MEAN_MOTION_DDOT = 0

